[{"OBJECT_NAME":"STARLING 2","OBJECT_ID":"2023-100B","EPOCH":"2026-03-09T22:50:31.935264","MEAN_MOTION":15.06172687,"ECCENTRICITY":0.00065493,"INCLINATION":99.5117,"RA_OF_ASC_NODE":63.5956,"ARG_OF_PERICENTER":83.1191,"MEAN_ANOMALY":277.0775,"EPHEMERIS_TYPE":0,"CLASSIFICATION_TYPE":"U","NORAD_CAT_ID":57387,"ELEMENT_SET_NO":999,"REV_AT_EPOCH":14496,"BSTAR":0.00017665492,"MEAN_MOTION_DOT":2.498e-5,"MEAN_MOTION_DDOT":0},{"OBJECT_NAME":"STARLINK-34950","OBJECT_ID":"2025-175V","EPOCH":"2026-03-09T14:59:22.156800","MEAN_MOTION":15.0565737,"ECCENTRICITY":0.000252,"INCLINATION":97.6017,"RA_OF_ASC_NODE":302.6406,"ARG_OF_PERICENTER":74.5682,"MEAN_ANOMALY":285.5823,"EPHEMERIS_TYPE":0,"CLASSIFICATION_TYPE":"U","NORAD_CAT_ID":65193,"ELEMENT_SET_NO":999,"REV_AT_EPOCH":3260,"BSTAR":-4.3173e-5,"MEAN_MOTION_DOT":-6.84e-6,"MEAN_MOTION_DDOT":0}]
